IRIDIUM 155             
1 43573U 18061E   21272.50313700  .00000122  00000-0  36405-4 0  9998
2 43573  86.3959  56.1987 0001808 104.0089 256.1308 14.34218394166589
IRIDIUM 154             
1 43574U 18061F   21272.48410354  .00000123  00000-0  36905-4 0  9995
2 43574  86.3963  56.2581 0002167  85.6871 274.4572 14.34218427166637
IRIDIUM 163             
1 43575U 18061G   21272.46505964  .00000122  00000-0  36620-4 0  9999
2 43575  86.3960  56.2338 0002603  94.4804 265.6689 14.34218065166600
IRIDIUM 156             
1 43576U 18061H   21272.43968865  .00000123  00000-0  36926-4 0  9990
2 43576  86.3961  56.2496 0002275 100.7812 259.3640 14.34218320166591
IRIDIUM 164             
1 43577U 18061J   21272.49044960  .00000120  00000-0  35891-4 0  9995
2 43577  86.3963  56.2426 0002267  87.9813 272.1643 14.34218149166646
IRIDIUM 159             
1 43578U 18061K   21272.45874466  .00000123  00000-0  37014-4 0  9996
2 43578  86.3960  56.2288 0002176  87.7132 272.4313 14.34219682166607
IRIDIUM 180             
1 43922U 19002A   21272.45822553  .00000097  00000-0  27521-4 0  9997
2 43922  86.4023 353.1196 0002847  78.5202 281.6314 14.34219181142217
IRIDIUM 176             
1 43923U 19002B   21272.46898808  .00000276  00000-0  39914-4 0  9993
2 43923  86.6155 353.1492 0002378  93.4466 266.7023 14.72259892145930
IRIDIUM 168             
1 43924U 19002C   21272.52166036  .00000100  00000-0  28629-4 0  9999
2 43924  86.4024 353.1216 0002261  87.5739 272.5716 14.34217283142203
IRIDIUM 173             
1 43925U 19002D   21272.29967103  .00000101  00000-0  28909-4 0  9990
2 43925  86.4021 353.1733 0002315  90.0642 270.0819 14.34217414142154
IRIDIUM 169             
1 43926U 19002E   21272.39915608  .00000135  00000-0  37553-4 0  9997
2 43926  86.4276  24.7057 0003043 233.5470 126.5448 14.38607767142688
IRIDIUM 172             
1 43927U 19002F   21272.50262709  .00000102  00000-0  29247-4 0  9993
2 43927  86.4021 353.0912 0002368  87.9704 272.1762 14.34218579142193
IRIDIUM 175             
1 43928U 19002G   21272.46283489  .00000274  00000-0  39607-4 0  9998
2 43928  86.6157 352.9748 0002931  92.0272 268.1281 14.72256729145920
IRIDIUM 171             
1 43929U 19002H   21272.48360691  .00000111  00000-0  32629-4 0  9999
2 43929  86.4032 353.2142 0002239  87.7970 272.3482 14.34216378142189
IRIDIUM 170             
1 43930U 19002J   21272.47520048  .00000271  00000-0  39100-4 0  9992
2 43930  86.6155 353.1527 0002431  89.3393 270.8102 14.72254901145941
IRIDIUM 167             
1 43931U 19002K   21272.47725038  .00000099  00000-0  28211-4 0  9998
2 43931  86.4022 353.1090 0002598  80.2048 279.9441 14.34217800142183
